{
  "norad_id": 54160,
  "name": "STARLINK-5233",
  "history": [
    {
      "epoch": "2026-03-28T20:44:53.661408Z",
      "apogee_km": 540.557911399258,
      "perigee_km": 538.8270704606284,
      "latitude_deg": 1.219522186878425e-05,
      "longitude_deg": 105.5050840464763,
      "height_km": 540.4597776256438,
      "semi_major_axis_km": 6917.829490929943,
      "eccentricity": 0.0001251,
      "inclination_deg": 53.2155,
      "raan_deg": 243.0075,
      "arg_perigee_deg": 81.4681,
      "mean_anomaly_deg": 278.6453,
      "mean_motion_rev_day": 15.08856652
    },
    {
      "epoch": "2026-03-29T03:06:25.901280Z",
      "apogee_km": 540.6420128883337,
      "perigee_km": 538.7741947103086,
      "latitude_deg": 1.8198647074459516e-05,
      "longitude_deg": 8.67020269975061,
      "height_km": 540.5837754180524,
      "semi_major_axis_km": 6917.845103799321,
      "eccentricity": 0.000135,
      "inclination_deg": 53.2158,
      "raan_deg": 241.8181,
      "arg_perigee_deg": 88.7802,
      "mean_anomaly_deg": 271.3345,
      "mean_motion_rev_day": 15.08851544
    },
    {
      "epoch": "2026-03-30T02:57:11.561472Z",
      "apogee_km": 540.38615146745,
      "perigee_km": 538.9970514842735,
      "latitude_deg": -1.8133258367954612e-05,
      "longitude_deg": 5.539604361631049,
      "height_km": 540.7163383337505,
      "semi_major_axis_km": 6917.828601475861,
      "eccentricity": 0.0001004,
      "inclination_deg": 53.2168,
      "raan_deg": 237.3571,
      "arg_perigee_deg": 100.6685,
      "mean_anomaly_deg": 259.442,
      "mean_motion_rev_day": 15.08856943
    }
  ]
}